[{"OBJECT_NAME":"STARLINK-36935","OBJECT_ID":"2026-040T","EPOCH":"2026-03-07T04:00:03.000096","MEAN_MOTION":16.12037055,"ECCENTRICITY":0.000105,"INCLINATION":97.2818,"RA_OF_ASC_NODE":14.0987,"ARG_OF_PERICENTER":114.2537,"MEAN_ANOMALY":202.8022,"EPHEMERIS_TYPE":0,"CLASSIFICATION_TYPE":"U","NORAD_CAT_ID":68032,"ELEMENT_SET_NO":999,"REV_AT_EPOCH":211,"BSTAR":-0.00075776,"MEAN_MOTION_DOT":-0.00802562,"MEAN_MOTION_DDOT":0.00025309},{"OBJECT_NAME":"STARLINK-36947","OBJECT_ID":"2026-040U","EPOCH":"2026-03-07T04:00:03.000096","MEAN_MOTION":16.11344196,"ECCENTRICITY":9.18e-5,"INCLINATION":97.2825,"RA_OF_ASC_NODE":14.095,"ARG_OF_PERICENTER":99.9511,"MEAN_ANOMALY":208.6084,"EPHEMERIS_TYPE":0,"CLASSIFICATION_TYPE":"U","NORAD_CAT_ID":68033,"ELEMENT_SET_NO":999,"REV_AT_EPOCH":201,"BSTAR":-0.00082679,"MEAN_MOTION_DOT":-0.00835999,"MEAN_MOTION_DDOT":0.00027041},{"OBJECT_NAME":"STARLINK-36939","OBJECT_ID":"2026-040V","EPOCH":"2026-03-07T04:00:03.000096","MEAN_MOTION":16.11769852,"ECCENTRICITY":9.46e-5,"INCLINATION":97.2825,"RA_OF_ASC_NODE":14.0972,"ARG_OF_PERICENTER":103.291,"MEAN_ANOMALY":210.6082,"EPHEMERIS_TYPE":0,"CLASSIFICATION_TYPE":"U","NORAD_CAT_ID":68034,"ELEMENT_SET_NO":999,"REV_AT_EPOCH":201,"BSTAR":-0.00079162,"MEAN_MOTION_DOT":-0.00823448,"MEAN_MOTION_DDOT":0.00026446},{"OBJECT_NAME":"STARLINK-36943","OBJECT_ID":"2026-040W","EPOCH":"2026-03-07T04:00:03.000096","MEAN_MOTION":16.12400381,"ECCENTRICITY":9.44e-5,"INCLINATION":97.2816,"RA_OF_ASC_NODE":14.1025,"ARG_OF_PERICENTER":105.1669,"MEAN_ANOMALY":218.7544,"EPHEMERIS_TYPE":0,"CLASSIFICATION_TYPE":"U","NORAD_CAT_ID":68035,"ELEMENT_SET_NO":999,"REV_AT_EPOCH":206,"BSTAR":-0.000729,"MEAN_MOTION_DOT":-0.00791204,"MEAN_MOTION_DDOT":0.00024772},{"OBJECT_NAME":"STARLINK-36906","OBJECT_ID":"2026-040X","EPOCH":"2026-03-07T04:00:03.000096","MEAN_MOTION":16.11671662,"ECCENTRICITY":0.0001029,"INCLINATION":97.2823,"RA_OF_ASC_NODE":14.0968,"ARG_OF_PERICENTER":110.3031,"MEAN_ANOMALY":202.371,"EPHEMERIS_TYPE":0,"CLASSIFICATION_TYPE":"U","NORAD_CAT_ID":68036,"ELEMENT_SET_NO":999,"REV_AT_EPOCH":201,"BSTAR":-0.00079644,"MEAN_MOTION_DOT":-0.00823084,"MEAN_MOTION_DDOT":0.00026389},{"OBJECT_NAME":"STARLINK-36388","OBJECT_ID":"2026-040Y","EPOCH":"2026-03-07T04:00:03.000096","MEAN_MOTION":16.11913103,"ECCENTRICITY":9.56e-5,"INCLINATION":97.2823,"RA_OF_ASC_NODE":14.0983,"ARG_OF_PERICENTER":94.0605,"MEAN_ANOMALY":221.5347,"EPHEMERIS_TYPE":0,"CLASSIFICATION_TYPE":"U","NORAD_CAT_ID":68037,"ELEMENT_SET_NO":999,"REV_AT_EPOCH":196,"BSTAR":-0.00077034,"MEAN_MOTION_DOT":-0.00809105,"MEAN_MOTION_DDOT":0.00025649},{"OBJECT_NAME":"STARLINK-36895","OBJECT_ID":"2026-040Z","EPOCH":"2026-03-07T04:00:03.000096","MEAN_MOTION":16.11577863,"ECCENTRICITY":0.0001018,"INCLINATION":97.2822,"RA_OF_ASC_NODE":14.0962,"ARG_OF_PERICENTER":111.6163,"MEAN_ANOMALY":199.7191,"EPHEMERIS_TYPE":0,"CLASSIFICATION_TYPE":"U","NORAD_CAT_ID":68038,"ELEMENT_SET_NO":999,"REV_AT_EPOCH":201,"BSTAR":-0.00081054,"MEAN_MOTION_DOT":-0.00832386,"MEAN_MOTION_DDOT":0.00026909},{"OBJECT_NAME":"STARLINK-36373","OBJECT_ID":"2026-040AA","EPOCH":"2026-03-07T04:00:03.000096","MEAN_MOTION":16.11408275,"ECCENTRICITY":0.0001452,"INCLINATION":97.2821,"RA_OF_ASC_NODE":14.0959,"ARG_OF_PERICENTER":103.9924,"MEAN_ANOMALY":205.9066,"EPHEMERIS_TYPE":0,"CLASSIFICATION_TYPE":"U","NORAD_CAT_ID":68039,"ELEMENT_SET_NO":999,"REV_AT_EPOCH":196,"BSTAR":-0.00087254,"MEAN_MOTION_DOT":-0.00885663,"MEAN_MOTION_DDOT":0.00030114},{"OBJECT_NAME":"STARLINK-36711","OBJECT_ID":"2026-041A","EPOCH":"2026-03-07T04:00:03.000096","MEAN_MOTION":15.99006096,"ECCENTRICITY":4.37e-5,"INCLINATION":53.1603,"RA_OF_ASC_NODE":75.1934,"ARG_OF_PERICENTER":83.8437,"MEAN_ANOMALY":273.9599,"EPHEMERIS_TYPE":0,"CLASSIFICATION_TYPE":"U","NORAD_CAT_ID":68040,"ELEMENT_SET_NO":999,"REV_AT_EPOCH":197,"BSTAR":-0.0030705,"MEAN_MOTION_DOT":-0.01518285,"MEAN_MOTION_DDOT":0.00070277},{"OBJECT_NAME":"STARLINK-36825","OBJECT_ID":"2026-041B","EPOCH":"2026-03-07T04:00:03.000096","MEAN_MOTION":15.99257654,"ECCENTRICITY":4.37e-5,"INCLINATION":53.16,"RA_OF_ASC_NODE":75.1878,"ARG_OF_PERICENTER":80.1329,"MEAN_ANOMALY":280.2332,"EPHEMERIS_TYPE":0,"CLASSIFICATION_TYPE":"U","NORAD_CAT_ID":68041,"ELEMENT_SET_NO":999,"REV_AT_EPOCH":197,"BSTAR":-0.0030273,"MEAN_MOTION_DOT":-0.0151838,"MEAN_MOTION_DDOT":0.00070476},{"OBJECT_NAME":"STARLINK-36925","OBJECT_ID":"2026-041C","EPOCH":"2026-03-07T04:00:03.000096","MEAN_MOTION":15.99137159,"ECCENTRICITY":4.05e-5,"INCLINATION":53.1601,"RA_OF_ASC_NODE":75.1906,"ARG_OF_PERICENTER":80.0736,"MEAN_ANOMALY":279.0894,"EPHEMERIS_TYPE":0,"CLASSIFICATION_TYPE":"U","NORAD_CAT_ID":68042,"ELEMENT_SET_NO":999,"REV_AT_EPOCH":197,"BSTAR":-0.0030408,"MEAN_MOTION_DOT":-0.01514835,"MEAN_MOTION_DDOT":0.00070083},{"OBJECT_NAME":"STARLINK-36902","OBJECT_ID":"2026-041D","EPOCH":"2026-03-07T04:00:03.000096","MEAN_MOTION":15.99349691,"ECCENTRICITY":5.21e-5,"INCLINATION":53.1602,"RA_OF_ASC_NODE":75.1856,"ARG_OF_PERICENTER":79.8024,"MEAN_ANOMALY":281.6493,"EPHEMERIS_TYPE":0,"CLASSIFICATION_TYPE":"U","NORAD_CAT_ID":68043,"ELEMENT_SET_NO":999,"REV_AT_EPOCH":197,"BSTAR":-0.0029557,"MEAN_MOTION_DOT":-0.01490602,"MEAN_MOTION_DDOT":0.00068196},{"OBJECT_NAME":"STARLINK-36966","OBJECT_ID":"2026-041E","EPOCH":"2026-03-07T04:00:03.000096","MEAN_MOTION":15.99595099,"ECCENTRICITY":4.91e-5,"INCLINATION":53.1602,"RA_OF_ASC_NODE":75.1803,"ARG_OF_PERICENTER":70.0207,"MEAN_ANOMALY":294.0263,"EPHEMERIS_TYPE":0,"CLASSIFICATION_TYPE":"U","NORAD_CAT_ID":68044,"ELEMENT_SET_NO":999,"REV_AT_EPOCH":197,"BSTAR":-0.0028884,"MEAN_MOTION_DOT":-0.01477264,"MEAN_MOTION_DDOT":0.0006726},{"OBJECT_NAME":"STARLINK-36864","OBJECT_ID":"2026-041F","EPOCH":"2026-03-07T04:00:03.000096","MEAN_MOTION":15.99491039,"ECCENTRICITY":4.3e-5,"INCLINATION":53.1601,"RA_OF_ASC_NODE":75.1827,"ARG_OF_PERICENTER":70.2788,"MEAN_ANOMALY":292.6513,"EPHEMERIS_TYPE":0,"CLASSIFICATION_TYPE":"U","NORAD_CAT_ID":68045,"ELEMENT_SET_NO":999,"REV_AT_EPOCH":197,"BSTAR":-0.0029275,"MEAN_MOTION_DOT":-0.01488268,"MEAN_MOTION_DDOT":0.00068104},{"OBJECT_NAME":"STARLINK-36321","OBJECT_ID":"2026-041G","EPOCH":"2026-03-07T04:00:03.000096","MEAN_MOTION":15.99858327,"ECCENTRICITY":5.69e-5,"INCLINATION":53.1602,"RA_OF_ASC_NODE":75.1748,"ARG_OF_PERICENTER":70.4436,"MEAN_ANOMALY":296.2183,"EPHEMERIS_TYPE":0,"CLASSIFICATION_TYPE":"U","NORAD_CAT_ID":68046,"ELEMENT_SET_NO":999,"REV_AT_EPOCH":197,"BSTAR":-0.0028964,"MEAN_MOTION_DOT":-0.01503412,"MEAN_MOTION_DDOT":0.00069657},{"OBJECT_NAME":"STARLINK-36181","OBJECT_ID":"2026-041H","EPOCH":"2026-03-07T04:00:03.000096","MEAN_MOTION":15.99731402,"ECCENTRICITY":5.44e-5,"INCLINATION":53.1602,"RA_OF_ASC_NODE":75.1777,"ARG_OF_PERICENTER":80.7032,"MEAN_ANOMALY":284.6376,"EPHEMERIS_TYPE":0,"CLASSIFICATION_TYPE":"U","NORAD_CAT_ID":68047,"ELEMENT_SET_NO":999,"REV_AT_EPOCH":185,"BSTAR":-0.0029143,"MEAN_MOTION_DOT":-0.01501791,"MEAN_MOTION_DDOT":0.00069424}]
