STARLINK-36935          
1 68032U 26040T   26066.16670139 -.00802562  25309-3 -75776-3 0  9996
2 68032  97.2818  14.0987 0001050 114.2537 202.8022 16.12037055  2114
STARLINK-36947          
1 68033U 26040U   26066.16670139 -.00835999  27041-3 -82679-3 0  9992
2 68033  97.2825  14.0950 0000918  99.9511 208.6084 16.11344196  2013
STARLINK-36939          
1 68034U 26040V   26066.16670139 -.00823448  26446-3 -79162-3 0  9990
2 68034  97.2825  14.0972 0000946 103.2910 210.6082 16.11769852  2012
STARLINK-36943          
1 68035U 26040W   26066.16670139 -.00791204  24772-3 -72900-3 0  9998
2 68035  97.2816  14.1025 0000944 105.1669 218.7544 16.12400381  2060
STARLINK-36906          
1 68036U 26040X   26066.16670139 -.00823084  26389-3 -79644-3 0  9999
2 68036  97.2823  14.0968 0001029 110.3031 202.3710 16.11671662  2010
STARLINK-36388          
1 68037U 26040Y   26066.16670139 -.00809105  25649-3 -77034-3 0  9997
2 68037  97.2823  14.0983 0000956  94.0605 221.5347 16.11913103  1962
STARLINK-36895          
1 68038U 26040Z   26066.16670139 -.00832386  26909-3 -81054-3 0  9992
2 68038  97.2822  14.0962 0001018 111.6163 199.7191 16.11577863  2013
STARLINK-36373          
1 68039U 26040AA  26066.16670139 -.00885663  30114-3 -87254-3 0  9990
2 68039  97.2821  14.0959 0001452 103.9924 205.9066 16.11408275  1964
STARLINK-36711          
1 68040U 26041A   26066.16670139 -.01518285  70277-3 -30705-2 0  9999
2 68040  53.1603  75.1934 0000437  83.8437 273.9599 15.99006096  1970
STARLINK-36825          
1 68041U 26041B   26066.16670139 -.01518380  70476-3 -30273-2 0  9997
2 68041  53.1600  75.1878 0000437  80.1329 280.2332 15.99257654  1979
STARLINK-36925          
1 68042U 26041C   26066.16670139 -.01514835  70083-3 -30408-2 0  9993
2 68042  53.1601  75.1906 0000405  80.0736 279.0894 15.99137159  1975
STARLINK-36902          
1 68043U 26041D   26066.16670139 -.01490602  68196-3 -29557-2 0  9994
2 68043  53.1602  75.1856 0000521  79.8024 281.6493 15.99349691  1976
STARLINK-36966          
1 68044U 26041E   26066.16670139 -.01477264  67260-3 -28884-2 0  9997
2 68044  53.1602  75.1803 0000491  70.0207 294.0263 15.99595099  1979
STARLINK-36864          
1 68045U 26041F   26066.16670139 -.01488268  68104-3 -29275-2 0  9997
2 68045  53.1601  75.1827 0000430  70.2788 292.6513 15.99491039  1975
STARLINK-36321          
1 68046U 26041G   26066.16670139 -.01503412  69657-3 -28964-2 0  9995
2 68046  53.1602  75.1748 0000569  70.4436 296.2183 15.99858327  1974
STARLINK-36181          
1 68047U 26041H   26066.16670139 -.01501791  69424-3 -29143-2 0  9996
2 68047  53.1602  75.1777 0000544  80.7032 284.6376 15.99731402  1852
